STARLINK-1506           
1 45747U 20038T   26068.66028804  .00025380  00000+0  97997-3 0  9997
2 45747  53.0733 202.5028 0002514 227.7836 132.2949 15.26134655316688
STARLINK-30796          
1 58189U 23167Q   26068.19933713 -.00001280  00000+0 -37025-4 0  9991
2 58189  43.0052 145.8654 0001581 239.7068 120.3627 15.27559241130916
